<?xml version="1.0" encoding="UTF-8"?>
<ndm xmlns:xsi="http://www.w3.org/2001/XMLSchema-instance" xsi:noNamespaceSchemaLocation="https://sanaregistry.org/r/ndmxml_unqualified/ndmxml-2.0.0-master-2.0.xsd">
<omm id="CCSDS_OMM_VERS" version="2.0">
<header><CREATION_DATE/><ORIGINATOR/></header><body><segment><metadata><OBJECT_NAME>ORBCOMM FM05</OBJECT_NAME><OBJECT_ID>1997-084F</OBJECT_ID><CENTER_NAME>EARTH</CENTER_NAME><REF_FRAME>TEME</REF_FRAME><TIME_SYSTEM>UTC</TIME_SYSTEM><MEAN_ELEMENT_THEORY>SGP4</MEAN_ELEMENT_THEORY></metadata><data><meanElements><EPOCH>2025-03-22T21:52:19.560000</EPOCH><MEAN_MOTION>14.45489364</MEAN_MOTION><ECCENTRICITY>.0000592</ECCENTRICITY><INCLINATION>45.0141</INCLINATION><RA_OF_ASC_NODE>62.1850</RA_OF_ASC_NODE><ARG_OF_PERICENTER>240.0266</ARG_OF_PERICENTER><MEAN_ANOMALY>120.0527</MEAN_ANOMALY></meanElements><tleParameters><EPHEMERIS_TYPE>0</EPHEMERIS_TYPE><CLASSIFICATION_TYPE>U</CLASSIFICATION_TYPE><NORAD_CAT_ID>25117</NORAD_CAT_ID><ELEMENT_SET_NO>999</ELEMENT_SET_NO><REV_AT_EPOCH>42812</REV_AT_EPOCH><BSTAR>.2196E-2</BSTAR><MEAN_MOTION_DOT>.7679E-4</MEAN_MOTION_DOT><MEAN_MOTION_DDOT>0</MEAN_MOTION_DDOT></tleParameters></data></segment></body></omm>
<omm id="CCSDS_OMM_VERS" version="2.0">
<header><CREATION_DATE/><ORIGINATOR/></header><body><segment><metadata><OBJECT_NAME>ORBCOMM FM06</OBJECT_NAME><OBJECT_ID>1997-084G</OBJECT_ID><CENTER_NAME>EARTH</CENTER_NAME><REF_FRAME>TEME</REF_FRAME><TIME_SYSTEM>UTC</TIME_SYSTEM><MEAN_ELEMENT_THEORY>SGP4</MEAN_ELEMENT_THEORY></metadata><data><meanElements><EPOCH>2025-03-22T07:38:17.378880</EPOCH><MEAN_MOTION>14.45632597</MEAN_MOTION><ECCENTRICITY>.0001319</ECCENTRICITY><INCLINATION>45.0134</INCLINATION><RA_OF_ASC_NODE>64.8650</RA_OF_ASC_NODE><ARG_OF_PERICENTER>289.3380</ARG_OF_PERICENTER><MEAN_ANOMALY>221.0798</MEAN_ANOMALY></meanElements><tleParameters><EPHEMERIS_TYPE>0</EPHEMERIS_TYPE><CLASSIFICATION_TYPE>U</CLASSIFICATION_TYPE><NORAD_CAT_ID>25118</NORAD_CAT_ID><ELEMENT_SET_NO>999</ELEMENT_SET_NO><REV_AT_EPOCH>42895</REV_AT_EPOCH><BSTAR>.21119E-2</BSTAR><MEAN_MOTION_DOT>.7402E-4</MEAN_MOTION_DOT><MEAN_MOTION_DDOT>0</MEAN_MOTION_DDOT></tleParameters></data></segment></body></omm>
<omm id="CCSDS_OMM_VERS" version="2.0">
<header><CREATION_DATE/><ORIGINATOR/></header><body><segment><metadata><OBJECT_NAME>ORBCOMM FM07</OBJECT_NAME><OBJECT_ID>1997-084H</OBJECT_ID><CENTER_NAME>EARTH</CENTER_NAME><REF_FRAME>TEME</REF_FRAME><TIME_SYSTEM>UTC</TIME_SYSTEM><MEAN_ELEMENT_THEORY>SGP4</MEAN_ELEMENT_THEORY></metadata><data><meanElements><EPOCH>2025-03-22T22:10:25.761792</EPOCH><MEAN_MOTION>14.45601990</MEAN_MOTION><ECCENTRICITY>.0000628</ECCENTRICITY><INCLINATION>45.0131</INCLINATION><RA_OF_ASC_NODE>62.7207</RA_OF_ASC_NODE><ARG_OF_PERICENTER>155.2887</ARG_OF_PERICENTER><MEAN_ANOMALY>204.7995</MEAN_ANOMALY></meanElements><tleParameters><EPHEMERIS_TYPE>0</EPHEMERIS_TYPE><CLASSIFICATION_TYPE>U</CLASSIFICATION_TYPE><NORAD_CAT_ID>25119</NORAD_CAT_ID><ELEMENT_SET_NO>999</ELEMENT_SET_NO><REV_AT_EPOCH>42903</REV_AT_EPOCH><BSTAR>.18443E-2</BSTAR><MEAN_MOTION_DOT>.644E-4</MEAN_MOTION_DOT><MEAN_MOTION_DDOT>0</MEAN_MOTION_DDOT></tleParameters></data></segment></body></omm>
<omm id="CCSDS_OMM_VERS" version="2.0">
<header><CREATION_DATE/><ORIGINATOR/></header><body><segment><metadata><OBJECT_NAME>ORBCOMM FM03</OBJECT_NAME><OBJECT_ID>1998-007B</OBJECT_ID><CENTER_NAME>EARTH</CENTER_NAME><REF_FRAME>TEME</REF_FRAME><TIME_SYSTEM>UTC</TIME_SYSTEM><MEAN_ELEMENT_THEORY>SGP4</MEAN_ELEMENT_THEORY></metadata><data><meanElements><EPOCH>2025-03-23T03:14:37.703040</EPOCH><MEAN_MOTION>14.34188101</MEAN_MOTION><ECCENTRICITY>.0044641</ECCENTRICITY><INCLINATION>107.9682</INCLINATION><RA_OF_ASC_NODE>318.8727</RA_OF_ASC_NODE><ARG_OF_PERICENTER>37.4665</ARG_OF_PERICENTER><MEAN_ANOMALY>322.9573</MEAN_ANOMALY></meanElements><tleParameters><EPHEMERIS_TYPE>0</EPHEMERIS_TYPE><CLASSIFICATION_TYPE>U</CLASSIFICATION_TYPE><NORAD_CAT_ID>25158</NORAD_CAT_ID><ELEMENT_SET_NO>999</ELEMENT_SET_NO><REV_AT_EPOCH>41184</REV_AT_EPOCH><BSTAR>.16341E-2</BSTAR><MEAN_MOTION_DOT>.4511E-4</MEAN_MOTION_DOT><MEAN_MOTION_DDOT>0</MEAN_MOTION_DDOT></tleParameters></data></segment></body></omm>
<omm id="CCSDS_OMM_VERS" version="2.0">
<header><CREATION_DATE/><ORIGINATOR/></header><body><segment><metadata><OBJECT_NAME>ORBCOMM FM04</OBJECT_NAME><OBJECT_ID>1998-007C</OBJECT_ID><CENTER_NAME>EARTH</CENTER_NAME><REF_FRAME>TEME</REF_FRAME><TIME_SYSTEM>UTC</TIME_SYSTEM><MEAN_ELEMENT_THEORY>SGP4</MEAN_ELEMENT_THEORY></metadata><data><meanElements><EPOCH>2025-03-22T22:12:24.751008</EPOCH><MEAN_MOTION>14.34441998</MEAN_MOTION><ECCENTRICITY>.0040469</ECCENTRICITY><INCLINATION>107.9663</INCLINATION><RA_OF_ASC_NODE>321.6041</RA_OF_ASC_NODE><ARG_OF_PERICENTER>35.0146</ARG_OF_PERICENTER><MEAN_ANOMALY>325.3643</MEAN_ANOMALY></meanElements><tleParameters><EPHEMERIS_TYPE>0</EPHEMERIS_TYPE><CLASSIFICATION_TYPE>U</CLASSIFICATION_TYPE><NORAD_CAT_ID>25159</NORAD_CAT_ID><ELEMENT_SET_NO>999</ELEMENT_SET_NO><REV_AT_EPOCH>41185</REV_AT_EPOCH><BSTAR>.1365E-2</BSTAR><MEAN_MOTION_DOT>.3757E-4</MEAN_MOTION_DOT><MEAN_MOTION_DDOT>0</MEAN_MOTION_DDOT></tleParameters></data></segment></body></omm>
<omm id="CCSDS_OMM_VERS" version="2.0">
<header><CREATION_DATE/><ORIGINATOR/></header><body><segment><metadata><OBJECT_NAME>ORBCOMM FM17</OBJECT_NAME><OBJECT_ID>1998-046A</OBJECT_ID><CENTER_NAME>EARTH</CENTER_NAME><REF_FRAME>TEME</REF_FRAME><TIME_SYSTEM>UTC</TIME_SYSTEM><MEAN_ELEMENT_THEORY>SGP4</MEAN_ELEMENT_THEORY></metadata><data><meanElements><EPOCH>2025-03-23T01:42:05.745312</EPOCH><MEAN_MOTION>14.34846018</MEAN_MOTION><ECCENTRICITY>.0002641</ECCENTRICITY><INCLINATION>44.9944</INCLINATION><RA_OF_ASC_NODE>303.9696</RA_OF_ASC_NODE><ARG_OF_PERICENTER>128.7182</ARG_OF_PERICENTER><MEAN_ANOMALY>231.3901</MEAN_ANOMALY></meanElements><tleParameters><EPHEMERIS_TYPE>0</EPHEMERIS_TYPE><CLASSIFICATION_TYPE>U</CLASSIFICATION_TYPE><NORAD_CAT_ID>25413</NORAD_CAT_ID><ELEMENT_SET_NO>999</ELEMENT_SET_NO><REV_AT_EPOCH>39097</REV_AT_EPOCH><BSTAR>.14239E-2</BSTAR><MEAN_MOTION_DOT>.3941E-4</MEAN_MOTION_DOT><MEAN_MOTION_DDOT>0</MEAN_MOTION_DDOT></tleParameters></data></segment></body></omm>
<omm id="CCSDS_OMM_VERS" version="2.0">
<header><CREATION_DATE/><ORIGINATOR/></header><body><segment><metadata><OBJECT_NAME>ORBCOMM FM18</OBJECT_NAME><OBJECT_ID>1998-046B</OBJECT_ID><CENTER_NAME>EARTH</CENTER_NAME><REF_FRAME>TEME</REF_FRAME><TIME_SYSTEM>UTC</TIME_SYSTEM><MEAN_ELEMENT_THEORY>SGP4</MEAN_ELEMENT_THEORY></metadata><data><meanElements><EPOCH>2025-03-23T12:08:36.593376</EPOCH><MEAN_MOTION>14.38202852</MEAN_MOTION><ECCENTRICITY>.0006049</ECCENTRICITY><INCLINATION>44.9912</INCLINATION><RA_OF_ASC_NODE>221.5750</RA_OF_ASC_NODE><ARG_OF_PERICENTER>207.7041</ARG_OF_PERICENTER><MEAN_ANOMALY>152.3485</MEAN_ANOMALY></meanElements><tleParameters><EPHEMERIS_TYPE>0</EPHEMERIS_TYPE><CLASSIFICATION_TYPE>U</CLASSIFICATION_TYPE><NORAD_CAT_ID>25414</NORAD_CAT_ID><ELEMENT_SET_NO>999</ELEMENT_SET_NO><REV_AT_EPOCH>39208</REV_AT_EPOCH><BSTAR>.18159E-2</BSTAR><MEAN_MOTION_DOT>.5429E-4</MEAN_MOTION_DOT><MEAN_MOTION_DDOT>0</MEAN_MOTION_DDOT></tleParameters></data></segment></body></omm>
<omm id="CCSDS_OMM_VERS" version="2.0">
<header><CREATION_DATE/><ORIGINATOR/></header><body><segment><metadata><OBJECT_NAME>ORBCOMM FM19</OBJECT_NAME><OBJECT_ID>1998-046C</OBJECT_ID><CENTER_NAME>EARTH</CENTER_NAME><REF_FRAME>TEME</REF_FRAME><TIME_SYSTEM>UTC</TIME_SYSTEM><MEAN_ELEMENT_THEORY>SGP4</MEAN_ELEMENT_THEORY></metadata><data><meanElements><EPOCH>2025-03-22T20:18:45.177408</EPOCH><MEAN_MOTION>14.38002287</MEAN_MOTION><ECCENTRICITY>.0004765</ECCENTRICITY><INCLINATION>44.9923</INCLINATION><RA_OF_ASC_NODE>226.5672</RA_OF_ASC_NODE><ARG_OF_PERICENTER>198.4613</ARG_OF_PERICENTER><MEAN_ANOMALY>318.7163</MEAN_ANOMALY></meanElements><tleParameters><EPHEMERIS_TYPE>0</EPHEMERIS_TYPE><CLASSIFICATION_TYPE>U</CLASSIFICATION_TYPE><NORAD_CAT_ID>25415</NORAD_CAT_ID><ELEMENT_SET_NO>999</ELEMENT_SET_NO><REV_AT_EPOCH>39177</REV_AT_EPOCH><BSTAR>.20607E-2</BSTAR><MEAN_MOTION_DOT>.6155E-4</MEAN_MOTION_DOT><MEAN_MOTION_DDOT>0</MEAN_MOTION_DDOT></tleParameters></data></segment></body></omm>

</ndm>
