ORBCOMM FM05            
1 25117U 97084F   25081.91133750  .00007679  00000+0  21960-2 0  9997
2 25117  45.0141  62.1850 0000592 240.0266 120.0527 14.45489364428123
ORBCOMM FM06            
1 25118U 97084G   25081.31825670  .00007402  00000+0  21119-2 0  9991
2 25118  45.0134  64.8650 0001319 289.3380 221.0798 14.45632597428955
ORBCOMM FM07            
1 25119U 97084H   25081.92390928  .00006440  00000+0  18443-2 0  9999
2 25119  45.0131  62.7207 0000628 155.2887 204.7995 14.45601990429033
ORBCOMM FM03            
1 25158U 98007B   25082.13515860  .00004511  00000+0  16341-2 0  9998
2 25158 107.9682 318.8727 0044641  37.4665 322.9573 14.34188101411842
ORBCOMM FM04            
1 25159U 98007C   25081.92528647  .00003757  00000+0  13650-2 0  9993
2 25159 107.9663 321.6041 0040469  35.0146 325.3643 14.34441998411857
ORBCOMM FM17            
1 25413U 98046A   25082.07089983  .00003941  00000+0  14239-2 0  9990
2 25413  44.9944 303.9696 0002641 128.7182 231.3901 14.34846018390975
ORBCOMM FM18            
1 25414U 98046B   25082.50597909  .00005429  00000+0  18159-2 0  9999
2 25414  44.9912 221.5750 0006049 207.7041 152.3485 14.38202852392084
ORBCOMM FM19            
1 25415U 98046C   25081.84635622  .00006155  00000+0  20607-2 0  9999
2 25415  44.9923 226.5672 0004765 198.4613 318.7163 14.38002287391775
